ONEWEB-0403             
1 50483U 21132Q   26198.84833350  .00000044  00000+0  79149-4 0  9990
2 50483  87.9200 329.3593 0001829  93.8922 266.2419 13.18686747225634
ONEWEB-0404             
1 50484U 21132R   26198.92651209  .00000207  00000+0  54784-3 0  9999
2 50484  87.8890  14.9463 0001777  81.1763 278.9566 13.11418345219723
ONEWEB-0405             
1 50485U 21132S   26198.86182242  .00000031  00000+0  46658-4 0  9996
2 50485  87.9202 329.3420 0002360  95.7311 264.4090 13.18684617226035
ONEWEB-0406             
1 50486U 21132T   26198.92926209  .00000023  00000+0  25227-4 0  9993
2 50486  87.9196 329.3432 0001683  82.2218 277.9105 13.18687041225674
ONEWEB-0407             
1 50487U 21132U   26198.84663085 -.00000217  00000+0 -58197-3 0  9993
2 50487  87.9201 329.3529 0002016 104.5382 255.5974 13.18685735225607
ONEWEB-0409             
1 50488U 21132V   26198.92481900  .00000112  00000+0  28080-3 0  9997
2 50488  87.8893  14.9360 0001885  82.3329 277.8013 13.11418629219615
ONEWEB-0412             
1 50489U 21132W   26198.91071665  .00000015  00000+0  43317-5 0  9994
2 50489  87.9199 329.3477 0001704 107.7046 252.4272 13.18686525225708
ONEWEB-0413             
1 50490U 21132X   26198.91577008 -.00000070  00000+0 -21099-3 0  9992
2 50490  87.9191 329.3429 0001877 108.8532 251.2803 13.18687580225644
ONEWEB-0414             
1 50491U 21132Y   26198.90059797 -.00000036  00000+0 -12521-3 0  9994
2 50491  87.9200 329.3311 0001720 101.0411 259.0915 13.18686985225675
ONEWEB-0417             
1 50492U 21132Z   26198.90902543 -.00000019  00000+0 -81878-4 0  9994
2 50492  87.9193 329.3463 0001855  92.9478 267.1866 13.18687215225655
ONEWEB-0418             
1 50493U 21132AA  26198.91900831  .00000017  00000+0  11209-4 0  9991
2 50493  87.9197 329.3457 0001851  90.9024 269.2320 13.18686108225719
ONEWEB-0419             
1 50494U 21132AB  26198.86219818  .00000054  00000+0  10512-3 0  9990
2 50494  87.9199 329.3580 0002089  92.5662 267.5709 13.18665554225623
ONEWEB-0420             
1 50495U 21132AC  26198.90227637 -.00000072  00000+0 -21495-3 0  9998
2 50495  87.9193 329.3498 0002043 103.7795 256.3564 13.18684413225628
ONEWEB-0421             
1 50496U 21132AD  26198.89555312 -.00000034  00000+0 -11982-3 0  9999
2 50496  87.9194 329.3495 0001584 105.7831 254.3476 13.18686246225669
ONEWEB-0424             
1 50497U 21132AE  26198.85676280  .00000054  00000+0  10545-3 0  9998
2 50497  87.9197 329.3575 0002182  92.9563 267.1819 13.18686697225681
ONEWEB-0426             
1 50498U 21132AF  26198.89133107  .00000016  00000+0  85674-5 0  9994
2 50498  87.9202 329.3408 0001311  86.1526 273.9757 13.18686120225633
